{
    "links": {
        "self": "http://www.neowsapp.com/rest/v1/neo/3136729?api_key=iIulBulltgU6a56xZRHN4H3l9WmuAYTsLGpBGhQ2"
    },
    "id": "3136729",
    "neo_reference_id": "3136729",
    "name": "(2002 RA182)",
    "designation": "2002 RA182",
    "nasa_jpl_url": "http://ssd.jpl.nasa.gov/sbdb.cgi?sstr=3136729",
    "absolute_magnitude_h": 20.9,
    "estimated_diameter": {
        "kilometers": {
            "estimated_diameter_min": 0.1756123185,
            "estimated_diameter_max": 0.3926810818
        },
        "meters": {
            "estimated_diameter_min": 175.6123184804,
            "estimated_diameter_max": 392.6810818086
        },
        "miles": {
            "estimated_diameter_min": 0.1091204019,
            "estimated_diameter_max": 0.2440006365
        },
        "feet": {
            "estimated_diameter_min": 576.1559189633,
            "estimated_diameter_max": 1288.3238004408
        }
    },
    "is_potentially_hazardous_asteroid": false,
    "close_approach_data": [
        {
            "close_approach_date": "2002-08-11",
            "close_approach_date_full": "2002-Aug-11 10:18",
            "epoch_date_close_approach": 1029061080000,
            "relative_velocity": {
                "kilometers_per_second": "3.4562281891",
                "kilometers_per_hour": "12442.4214807711",
                "miles_per_hour": "7731.2368362047"
            },
            "miss_distance": {
                "astronomical": "0.3828965586",
                "lunar": "148.9467612954",
                "kilometers": "57280509.596890182",
                "miles": "35592458.2192892316"
            },
            "orbiting_body": "Earth"
        }
    ],
    "orbital_data": {
        "orbit_id": "11",
        "orbit_determination_date": "2017-04-06 09:14:50",
        "first_observation_date": "2002-09-05",
        "last_observation_date": "2002-10-11",
        "data_arc_in_days": 36,
        "observations_used": 30,
        "orbit_uncertainty": "7",
        "minimum_orbit_intersection": ".269081",
        "jupiter_tisserand_invariant": "3.569",
        "epoch_osculation": "2459000.5",
        "eccentricity": ".4188939266664046",
        "semi_major_axis": "2.159828546990022",
        "inclination": "7.612732751416169",
        "ascending_node_longitude": "353.3210547207046",
        "orbital_period": "1159.384106315357",
        "perihelion_distance": "1.255089486015177",
        "perihelion_argument": "301.9170030306931",
        "aphelion_distance": "3.064567607964868",
        "perihelion_time": "2459415.398972254527",
        "mean_anomaly": "231.1698485445667",
        "mean_motion": ".3105096904805062",
        "equinox": "J2000",
        "orbit_class": {
            "orbit_class_type": "AMO",
            "orbit_class_description": "Near-Earth asteroid orbits similar to that of 1221 Amor",
            "orbit_class_range": "1.017 AU < q (perihelion) < 1.3 AU"
        }
    },
    "is_sentry_object": false
}